LOCATION ACCOUNT #,BUSINESS NAME,DBA NAME,STREET ADDRESS,CITY,ZIP CODE,LOCATION DESCRIPTION,LOCATION
0000008207-0001-5,STARBUCKS CORPORATION,STARBUCKS #5759,22815 VICTORY BLVD #A,CANOGA PARK,91307-3953,22815 VICTORY 91307-3953,"(34.1864, -118.6236)"
0000008207-0002-3,STARBUCKS CORPORATION,STARBUCKS COFFEE #643,16461 VENTURA BLVD #A,ENCINO,91436-4370,16461 VENTURA 91436-4370,"(34.1574, -118.4914)"
0000008207-0003-1,STARBUCKS CORPORATION,STARBUCKS COFFEE #5642,5166 LANKERSHIM BLVD,N HOLLYWOOD,91601-3799,5166 LANKERSHIM 91601-3799,"(34.1643, -118.3743)"
0000008207-0004-0,STARBUCKS CORPORATION,STARBUCKS COFFEE #6745,6840 RESEDA BLVD,RESEDA,91335-4204,6840 RESEDA 91335-4204,"(34.1945, -118.536)"
0000008207-0005-8,STARBUCKS CORPORATION,STARBUCKS COFFEE #13365,12520 SHERMAN WAY,NORTH HOLLYWOOD,91605-5236,12520 SHERMAN 91605-5236,"(34.2012, -118.406)"
0000008207-0006-6,STARBUCKS CORPORATION,STARBUCKS COFFEE #16710,9157 DE SOTO AVENUE,CHATSWORTH,91311-4906,9157 DE SOTO 91311-4906,"(34.2372, -118.5885)"
0000008207-0011-2,STARBUCKS CORPORATION,STARBUCKS COFFEE #18869,23355 MULHOLLAND DRIVE,WOODLAND HILLS,91364-2734,23355 MULHOLLAND 91364-2734,"(34.1576, -118.6353)"
0000008207-0012-1,STARBUCKS CORPORATION,STARBUCKS COFFEE #19305,16926 ROSCOE BLVD,VAN NUYS,91406-1101,16926 ROSCOE 91406-1101,"(34.2212, -118.5014)"
0000008207-0013-9,STARBUCKS CORPORATION,STARBUCKS COFFEE #19883,639 N BROADWAY,LOS ANGELES,90012-2801,639 BROADWAY 90012-2801,"(34.0592, -118.2398)"
0000008207-0014-7,STARBUCKS CORPORATION,STARBUCKS COFFEE #18356,14006 RIVERSIDE DRIVE #24C,SHERMAN OAKS,91423-6328,14006 RIVERSIDE 91423-6328,"(34.1576, -118.4381)"
0000008207-0015-5,STARBUCKS CORPORATION,STARBUCKS COFFEE #20680,1680 LOMITA BLVD,HARBOR CITY,90710-2028,1680 LOMITA 90710-2028,"(33.7978, -118.3069)"
0000008207-0016-3,STARBUCKS CORPORATION,STARBUCKS COFFEE #20770,516 PALISADES DRIVE,PACIFIC PALISADES,90272-2844,516 PALISADES 90272-2844,"(34.0455, -118.5519)"
0000008207-0017-1,STARBUCKS CORPORATION,STARBUCKS COFFEE #19848,6240 YORK BLVD,LOS ANGELES,90042-3638,6240 YORK 90042-3638,"(34.115, -118.1831)"
0000008207-0018-0,STARBUCKS CORPORATION,STARBUCKS COFFEE #21800,5857 S CENTRAL AVENUE,LOS ANGELES,90001-1127,5857 CENTRAL 90001-1127,"(33.9882, -118.2564)"
0000008207-0019-8,STARBUCKS CORPORATION,STARBUCKS COFFEE #21086,20903 VENTURA BLVD,WOODLAND HILLS,91364-2331,20903 VENTURA 91364-2331,"(34.1664, -118.5883)"
0000008207-0020-1,STARBUCKS CORPORATION,STARBUCKS COFFEE #22525,3150 WILSHIRE BLVD,LOS ANGELES,90010-1204,3150 WILSHIRE 90010-1204,"(34.0617, -118.2905)"
0000008207-0021-0,STARBUCKS CORPORATION,STARBUCKS COFFEE #22477,2675 E OLYMPIC BLVD,LOS ANGELES,90023-2607,2675 OLYMPIC 90023-2607,"(34.0245, -118.2203)"
0000008207-0023-6,STARBUCKS CORPORATION,STARBUCKS COFFEE #23369,6833 VAN NUYS BLVD,VAN NUYS,91405-4626,6833 VAN NUYS 91405-4626,"(34.1947, -118.4488)"
0000008207-0024-4,STARBUCKS CORPORATION,STARBUCKS COFFEE #22640,12404 VENICE BLVD,LOS ANGELES,90066-3804,12404 VENICE 90066-3804,"(34.0035, -118.4335)"
0000008207-0025-2,STARBUCKS CORPORATION,STARBUCKS COFFEE #20686,9020 RESEDA BLVD UNIT #A,NORTHRIDGE,91324-3923,9020 RESEDA 91324-3923,"(34.234, -118.536)"
0000008207-0026-1,STARBUCKS CORPORATION,STARBUCKS COFFEE #22881,12746 W JEFFERSON BLVD,LOS ANGELES,90066-7032,12746 JEFFERSON 90066-7032,"(33.9775, -118.4174)"
0000008207-0028-7,STARBUCKS CORPORATION,STARBUCKS COFFEE #22601,859 N HIGHLAND AVENUE,LOS ANGELES,90038-3416,859 HIGHLAND 90038-3416,"(34.0863, -118.3385)"
0000008207-0029-5,STARBUCKS CORPORATION,STARBUCKS COFFEE COMPANY # 24005,2735 S FIGUEROA STREET,LOS ANGELES,90007-3256,2735 FIGUEROA 90007-3256,"(34.0269, -118.2768)"
0000008207-0030-9,STARBUCKS CORPORATION,STARBUCKS COFFEE #20895,12106 BURBANK BLVD,VALLEY VILLAGE,91607-1709,12106 BURBANK 91607-1709,"(34.1721, -118.3966)"
0000008207-0033-3,STARBUCKS CORPORATION,STARBUCKS COFFEE #25059,13651 FOOTHILL BLVD,SYLMAR,91342-3131,13651 FOOTHILL 91342-3131,"(34.3077, -118.4307)"
0000008207-0034-1,STARBUCKS CORPORATION,STARBUCKS COFFEE COMPANY # 25813,8400 LINCOLN BLVD,LOS ANGELES,90045-2416,8400 LINCOLN 90045-2416,"(33.9612, -118.4204)"
0000008207-0035-0,STARBUCKS CORPORATION,STARBUCKS COFFEE #26527,3006 S SEPULVEDA BLVD,LOS ANGELES,90034-4202,3006 SEPULVEDA 90034-4202,"(34.0272, -118.4285)"
0000008207-0038-4,STARBUCKS CORPORATION,STARBUCKS COFFEE # 22417,4853   LANKERSHIM BLVD,NORTH HOLLYWOOD,91601-4527,4853 LANKERSHIM 91601-4527,"(34.1589, -118.3715)"
0000008207-0039-2,STARBUCKS CORPORATION,STARBUCKS COFFEE #26338,1401 S ALAMEDA STREET,LOS ANGELES,90021-2425,1401 ALAMEDA 90021-2425,"(34.0253, -118.2395)"
0000008207-0041-4,STARBUCKS CORPORATION,STARBUCKS COFFEE COMPANY # 28051,1742 S LA CIENEGA BLVD,LOS ANGELES,90035-4602,1742 LA CIENEGA 90035-4602,"(34.046, -118.3761)"
0000008207-0042-2,STARBUCKS CORPORATION,STARBUCKS # 29377,534 S OCCIDENTAL BLVD,LOS ANGELES,90057-1502,534 OCCIDENTAL 90057-1502,"(34.0638, -118.2842)"
0000008207-0046-5,STARBUCKS CORPORATION,STARBUCKS COFFEE #28906,682 W 9TH STREET,SAN PEDRO,90731-3108,682 9TH 90731-3108,"(33.7363, -118.2919)"
0000008207-0052-0,STARBUCKS CORPORATION,STARBUCKS COFFEE COMPANY # 52257,3026 S FIGUEROA STREET,LOS ANGELES,90007-3711,3026 FIGUEROA 90007-3711,"(34.0242, -118.2781)"
0000008207-0053-8,STARBUCKS CORPORATION,STARBUCKS #55650,4700 W SUNSET BLVD,LOS ANGELES,90027-6082,4700 SUNSET 90027-6082,"(34.0978, -118.2921)"
0000008207-0056-2,STARBUCKS CORPORATION,,19759 RINALDI STREET,PORTER RANCH,91326-4143,19759 Rinaldi 91326-4143,"(34.2755, -118.5632)"
0000008207-0058-9,STARBUCKS CORPORATION,STARBUCKS COFFEE #48152,6360 RESEDA BLVD,LOS ANGELES,91355-,6360 RESEDA 91355,"(0.0, 0.0)"
0000024503-0001-5,STARBUCKS CORPORATION,STARBUCKS COFFEE#5839,12848 VICTORY BLVD,N HOLLYWOOD,91606-3013,12848 VICTORY 91606-3013,"(34.1866, -118.4127)"
0000024503-0002-3,STARBUCKS CORPORATION,,9000 SEPULVEDA BLVD #8637,NORTH HILLS,91343-4308,9000 SEPULVEDA 91343-4308,"(34.2335, -118.4674)"
0000037459-0001-1,STARBUCKS CORPORATION,STARBUCKS COFFEE #5738,11155 SANTA MONICA BLVD,LOS ANGELES,90025-3313,11155 SANTA MONICA 90501,"(34.0477, 34.0477)"
0000037459-0002-9,STARBUCKS CORPORATION,,7050   TOPANGA CANYON BLVD,CANOGA PARK,91303-1960,7050 TOPANGA CANYON 91303-1960,"(34.1986, -118.6055)"
0000037459-0003-7,STARBUCKS CORPORATION,STARBUCKS COFFEE COMPANY # 24933,1277 N WESTERN AVENUE,LOS ANGELES,90029-1018,1277 WESTERN 90029-1018,"(34.0946, -118.3095)"
0000037459-0005-3,STARBUCKS CORPORATION,STARBUCKS COFFEE #48339,1249 S GRAND AVENUE,LOS ANGELES,90015-0000,1249 GRAND 90015-0000,"(0.0, 0.0)"
0000037459-0008-8,STARBUCKS CORPORATION,STARBUCKS COFFEE COMPANY # 29863,11109   SEPULVEDA BLVD,MISSION HILLS,91345-1113,11109 SEPULVEDA 91345-1113,"(34.2724, -118.468)"
0000037459-0009-6,STARBUCKS CORPORATION,STARBUCKS COFFEE COMPANY # 26769,6060   LANKERSHIM BLVD,NORTH HOLLYWOOD,91606-4806,6060 LANKERSHIM 91606-4806,"(34.1814, -118.3839)"
0000037459-0012-6,STARBUCKS CORPORATION,STARBUCKS COFFEE COMPANY # 55230,3241 N FIGUEROA STREET,LOS ANGELES,90065-1525,3241 FIGUEROA 90065-1525,"(34.0865, -118.2195)"
0000037459-0013-4,STARBUCKS CORPORATION,STARBUCKS COFFEE COMPANY # 54501,3465 W 6TH STREET   UNIT #30/40,LOS ANGELES,90020-2567,3465 6TH 90020-2567,"(34.064, -118.2973)"
0000037459-0014-2,STARBUCKS CORPORATION,STARBUCKS COFFEE COMPANY # 54500,909   OCEAN FRONT WALKS,VENICE,90291-9006,909 OCEAN FRONT 90291-9006,"(33.9904, -118.4764)"
0000038095-0002-0,STARBUCKS CORPORATION,STARBUCKS COFFEE #27261,4550   VAN NUYS BLVD   #K,SHERMAN OAKS,91403-2913,4550 VAN NUYS 91403-2913,"(34.1547, -118.448)"
0000066929-0001-2,STARBUCKS CORPORATION,STARBUCKS COFFEE #5494,10955 WEYBURN AVENUE,LOS ANGELES,90024-2811,10955 WEYBURN 90024-2811,"(34.0623, -118.4472)"
0000066929-0002-1,STARBUCKS CORPORATION,STARBUCKS COFFEE #24851,2720   GRIFFITH PARK BLVD,LOS ANGELES,90027-3399,2720 GRIFFITH PARK 90027-3399,"(34.1074, -118.2727)"
0000066930-0001-5,STARBUCKS CORPORATION,STARBUCKS COFFEE CO #544,17308 VENTURA BLVD,ENCINO,91316-3904,17308 VENTURA 91316-3904,"(34.1608, -118.51)"
0000111880-0001-2,STARBUCKS CORPORATION,STARBUCKS COFFEE #585,5422 TOPANGA CANYON BLVD,WOODLAND HILLS,91367-6313,5422 TOPANGA CANYON 91367-6313,"(34.1691, -118.6057)"
0000111880-0002-1,STARBUCKS CORPORATION,STARBUCKS COFFEE #9456,17272 SATICOY STREET,VAN NUYS,91406-2103,17272 SATICOY 91406-2103,"(34.2084, -118.5094)"
0000111880-0004-7,STARBUCKS CORPORATION,STARBUCKS COFFEE #9998,5353 WILSHIRE BLVD,LOS ANGELES,90036-4284,5353 WILSHIRE 90036-4284,"(34.0623, -118.3451)"
0000111880-0006-3,STARBUCKS CORPORATION,STARBUCKS COFFEE COMPANY # 10939,1111 S GRAND AVENUE,LOS ANGELES,90015-2176,1111 GRAND 90015-2176,"(34.0414, -118.2621)"
0000111880-0007-1,STARBUCKS CORPORATION,STARBUCKS COFFEE #10895,22435 VENTURA BLVD #B,WOODLAND HILLS,91364-1580,22435 VENTURA 91364-1580,"(34.1684, -118.6154)"
0000111880-0008-0,STARBUCKS CORPORATION,STARBUCKS COFFEE #8608,12313 JEFFERSON BLVD,LOS ANGELES,90230-6225,12313 JEFFERSON 90230-6225,"(33.9815, -118.4086)"
0000111880-0009-8,STARBUCKS CORPORATION,STARBUCKS COFFEE #11868,438 S GAFFEY STREET,SAN PEDRO,90731-2436,438 GAFFEY 90731-2436,"(33.7402, -118.2923)"
0000111880-0010-1,STARBUCKS CORPORATION,STARBUCKS CORPORATION #11991,3242 CAHUENGA BLVD E,LOS ANGELES,90068-1822,3242 CAHUENGA 90068-1822,"(34.1285, -118.3462)"
0000111880-0011-0,STARBUCKS CORPORATION,STARBUCKS COFFEE #12900,5757 WILSHIRE BLVD UNIT #106,LOS ANGELES,90036-3684,5757 WILSHIRE 90036-3684,"(34.0625, -118.3545)"
0000111880-0012-8,STARBUCKS CORPORATION,STARBUCKS COFFEE #6593,3730 CRENSHAW BLVD,LOS ANGELES,90016-5804,3730 CRENSHAW 90016-5804,"(34.0191, -118.335)"
0000111880-0013-6,STARBUCKS CORPORATION,STARBUCKS COFFEE #6630,14431 BURBANK BLVD,VAN NUYS,91401-4825,14431 BURBANK 91401-4825,"(34.1721, -118.4474)"
0000111880-0014-4,STARBUCKS CORPORATION,STARBUCKS COFFEE #6961,15355 SHERMAN WAY,VAN NUYS,91406-4200,15355 SHERMAN 91406-4200,"(34.2012, -118.4679)"
0000111880-0015-2,STARBUCKS CORPORATION,STARBUCKS COFFEE #17413,3584 S FIGUEROA STREET UNIT #3,LOS ANGELES,90007-4313,3584 FIGUEROA 90007-4313,"(34.0191, -118.2817)"
0000111880-0017-9,STARBUCKS CORPORATION,STARBUCKS CORPORATION #17853,9301 TAMPA AVENUE,NORTHRIDGE,91324-2503,9301 TAMPA 91324-2503,"(34.2391, -118.5535)"
0000111880-0018-7,STARBUCKS CORPORATION,STARBUCKS COFFEE #17848,3450 WILSHIRE BLVD,LOS ANGELES,90010-2208,3450 WILSHIRE 90010-2208,"(34.0617, -118.2989)"
0000111880-0019-5,STARBUCKS CORPORATION,STARBUCKS COFFEE #17989,206 W 6TH STREET,LOS ANGELES,90014-1848,206 6TH 90014-1848,"(34.046, -118.251)"
0000115140-0001-0,STARBUCKS CORPORATION,STARBUCKS COFFEE #573,12170 VENTURA BLVD,STUDIO CITY,91604-2514,12170 VENTURA 91604-2514,"(34.1433, -118.3975)"
0000129894-0009-4,WALGREEN CO,COMMUNITY A WALGREENS PHARMACY #16482,1902   MARENGO STREET   UNIT #105-106,LOS ANGELES,90033-1317,1902 MARENGO 90033-1317,"(34.0575, -118.2102)"
0000147995-0001-0,STARBUCKS CORPORATION,STARBUCKS COFFEE #5777,13535 VENTURA BLVD,VAN NUYS,91423-3876,13535 VENTURA 91423-3876,"(34.1475, -118.4283)"
0000149719-0001-7,WALGREEN CO /C,WALGREENS #7482,1800 W SLAUSON AVENUE,LOS ANGELES,90047-1126,1800 SLAUSON 90047-1126,"(33.9891, -118.3113)"
0000149719-0002-5,WALGREEN CO /C,WALGREENS #07826,13231 VICTORY BLVD,VAN NUYS,91401-2025,13231 VICTORY 91401-2025,"(34.1866, -118.4213)"
0000149719-0003-3,WALGREEN CO /C,WALGREENS #05525,7155 VAN NUYS BLVD,VAN NUYS,91405-3006,7155 VAN NUYS 91405-3006,"(34.2003, -118.4487)"
0000149719-0004-1,WALGREEN CO /C,WALGREENS #05566,17010 CHATSWORTH STREET,GRANADA HILLS,91344-5844,17010 CHATSWORTH 91344-5844,"(34.2647, -118.5026)"
0000149719-0005-0,WALGREEN CO /C,WALGREENS #05591,24930 WESTERN AVENUE,HARBOR CITY,90710-2029,24930 WESTERN 90710-2029,"(33.7982, -118.3074)"
0000149719-0006-8,WALGREEN CO /C,WALGREENS #06445,8770 W PICO BLVD,LOS ANGELES,90035-2211,8770 PICO 90035-2211,"(34.0546, -118.383)"
0000149719-0007-6,WALGREEN CO /C,WALGREENS #05879,3201 W 6TH STREET,LOS ANGELES,90020-5001,3201 6TH 90020-5001,"(34.0636, -118.2916)"
0000149719-0008-4,WALGREEN CO /C,WALGREENS #05743,7560 TOPANGA CANYON BLVD,CANOGA PARK,91303-1213,7560 TOPANGA CANYON 91303-1213,"(34.2078, -118.6059)"
0000149719-0009-2,WALGREEN CO /C,WALGREEN #6347,18515 DEVONSHIRE STREET,NORTHRIDGE,91324-1308,18515 DEVONSHIRE 91324-1308,"(34.2572, -118.5364)"
0000149719-0010-6,WALGREEN CO /C,WALGREENS #06931,10407 SANTA MONICA BLVD,LOS ANGELES,90025-5009,10407 SANTA MONICA 90025-5009,"(34.0574, -118.4243)"
0000149719-0011-4,WALGREEN CO /C,WALGREENS #06516,5467 WILSHIRE BLVD,LOS ANGELES,90036-4219,5467 WILSHIRE 90036-4219,"(34.0623, -118.3477)"
0000149719-0012-2,WALGREEN CO /C,WALGREENS #05848,20505 SHERMAN WAY,CANOGA PARK,91306-3427,20505 SHERMAN 91306-3427,"(34.2011, -118.5798)"
0000149719-0013-1,WALGREEN CO /C,WALGREENS #07015,20901 DEVONSHIRE STREET,CHATSWORTH,91311-2313,20901 DEVONSHIRE 91311-2313,"(34.2572, -118.5885)"
0000149719-0014-9,WALGREEN CO /C,WALGREENS #06700,5224 COLDWATER CANYON AVENUE,VAN NUYS,91401-6146,5224 COLDWATER CANYON 91401-6146,"(34.1652, -118.4137)"
0000149719-0015-7,WALGREEN CO /C,WALGREENS #06648,18430 SHERMAN WAY,RESEDA,91335-4305,18430 SHERMAN 91335-4305,"(34.201, -118.5345)"
0000149719-0016-5,WALGREEN CO /C,WALGREENS #07070,4009 LINCOLN BLVD,MARINA DEL REY,90292-5613,4009 LINCOLN 90292-5613,"(33.9863, -118.4439)"
0000149719-0017-3,WALGREEN CO /C,WALLGREENS #06854,2222 COLORADO BLVD,LOS ANGELES,90041-1143,2222 COLORADO 90041-1143,"(34.1392, -118.2148)"
0000149719-0018-1,WALGREEN CO /C,WALGREENS #09136,1625 W SUNSET BLVD,LOS ANGELES,90026-4226,1625 SUNSET 90026-4226,"(34.0768, -118.2576)"
0000149719-0019-0,WALGREEN CO /C,WALGREENS #7036,5451 W SUNSET BLVD,LOS ANGELES,90027-5613,5451 SUNSET 90027-5613,"(34.0981, -118.3081)"
0000149719-0020-3,WALGREEN CO /C,WALGREENS #07481,22930 S WESTERN AVENUE,TORRANCE,90501-5112,22930 WESTERN 90501-5112,"(33.8176, -118.3087)"
0000149719-0021-1,WALGREEN CO /C,WALGREENS #7950,15316 NORDHOFF STREET,NORTH HILLS,91343-2234,15316 NORDHOFF 91343-2234,"(34.2355, -118.4657)"
0000149719-0022-0,WALGREEN CO /C,WALGREENS #07016,3724 CRENSHAW BLVD,LOS ANGELES,90016-5804,3724 CRENSHAW 90016-5804,"(34.0193, -118.335)"
0000149719-0023-8,WALGREEN CO /C,WALGREENS #01813,18568 VENTURA BLVD,TARZANA,91356-4146,18568 VENTURA 91356-4146,"(34.1694, -118.5376)"
0000149719-0024-6,WALGREEN CO /C,WALGREENS #09491,10955 MAGNOLIA BLVD,NORTH HOLLYWOOD,91601-3907,10955 MAGNOLIA 91601-3907,"(34.1649, -118.3695)"
0000149719-0025-4,WALGREEN CO /C,WALGREENS #11449,4616 DE LONGPRE AVENUE,LOS ANGELES,90027-6076,4616 DE LONGPRE 90027-6076,"(34.0969, -118.2903)"
0000149719-0050-5,WALGREEN CO /C,WALGREENS #11735,16100 VENTURA BLVD,ENCINO,91436-2502,16100 VENTURA 91436-2502,"(34.1563, -118.4836)"
0000149719-0051-3,WALGREEN CO /C,WALGREENS #12419,11795 W OLYMPIC BLVD,LOS ANGELES,90064-1211,11795 OLYMPIC 90064-1211,"(34.0332, -118.4496)"
0000149719-0052-1,WALGREEN CO /C,WALGREEN #06124,9750 WOODMAN AVENUE,ARLETA,91331-6422,9750 WOODMAN 91331-6422,"(34.2474, -118.4483)"
0000149719-0053-0,WALGREEN CO /C,WALGREENS #12057,1050 N HIGHLAND AVENUE,LOS ANGELES,90038-2407,1050 HIGHLAND 90038-2407,"(34.0898, -118.3386)"
0000149719-0054-8,WALGREEN CO /C,WALGREENS #15190,1399 ROXBURY DRIVE,LOS ANGELES,90035-4709,1399 ROXBURY 90035-4709,"(34.0539, -118.4021)"
0000149719-0056-4,WALGREEN CO /C,WALGREENS #11918,11000 VENTURA BLVD,STUDIO CITY,91604-3546,11000 VENTURA 91604-3546,"(34.1403, -118.3701)"
0000149719-0057-2,WALGREEN CO /C,WALGREENS # 12529,305 N BREED STREET,LOS ANGELES,90033-1801,305 BREED 90033-1801,"(34.0473, -118.2087)"
0000149719-0058-1,WALGREEN CO /C,WALGREENS # 12460 | WALGREENS #12460,617 W 7TH STREET SUITE #100,LOS ANGELES,90017-3897,617 7TH 90017-3897,"(34.0474, -118.2567)"
0000149719-0059-9,WALGREEN CO /C,WALGREENS # 15293 | WALGREENS #15293,4940 VAN NUYS BLVD SUITE #104,SHERMAN OAKS,91403-1700,4940 VAN NUYS 91403-1700,"(34.1601, -118.4487)"
0000149719-0060-2,WALGREEN CO /C,WALGREENS #15278,1501 VINE STREET,LOS ANGELES,90028-7304,1501 VINE 90028-7304,"(34.098, -118.3266)"
0000149719-0062-9,WALGREEN CO /C,WALGREENS #16368,3745 S LA BREA AVENUE SUITE #C/D,LOS ANGELES,90016-5357,3745 LA BREA 90016-5357,"(34.0189, -118.3555)"
0000149719-0066-1,WALGREEN CO /C,WALGREENS # 16540,6801   HOLLYWOOD BLVD   SUITE #132,LOS ANGELES,90028-6138,6801 HOLLYWOOD 90028-6138,"(34.1026, -118.3395)"
0000155171-0001-1,STARBUCKS CORPORATION,STARBUCKS COFFEE 616,4264 LINCOLN BLVD,MARINA DEL REY,90292-5654,4264 LINCOLN 90292-5654,"(33.9857, -118.4435)"
0000155171-0002-9,STARBUCKS CORPORATION,STARBUCKS COFFEE #70567,300 S SANTA FE AVENUE    #D,LOS ANGELES,90013-3100,300 Santa Fe 90013-3100,"(34.0439, -118.2325)"
0000155171-0003-7,STARBUCKS CORPORATION,STARBUCKS COFFEE #77065,14435 VICTORY BLVD,VAN NUYS,91401-1440,14435 Victory 91401-1440,"(34.187, -118.4477)"
0000155171-0004-5,STARBUCKS CORPORATION,STARBUCKS COFFEE #66065,8232 DE SOTO AVENUE,CANOGA PARK,91304-4342,8232 DE SOTO 91304-4342,"(34.2191, -118.588)"
0000155171-0005-3,STARBUCKS CORPORATION,STARBUCKS COFFEE #8617,4959 EAGLE ROCK BLVD,LOS ANGELES,90041-1921,4959 Eagle Rock 90041-1921,"(34.1364, -118.2153)"
0000155172-0001-5,STARBUCKS CORPORATION,STARBUCKS COFFEE #609,15300 W SUNSET BLVD,PACIFIC PALISADES,90272-3613,15300 SUNSET 90272-3613,"(34.0474, -118.5257)"
0000155172-0002-3,STARBUCKS CORPORATION,STARBUCKS COFFEE #58656,7915 W SUNSET BLVD,LOS ANGELES,90046-3303,7915 Sunset 90046-3303,"(34.0982, -118.3619)"
0000155172-0003-1,STARBUCKS CORPORATION,STARBUCKS COFFEE #52746,1400 GLENDALE BLVD,LOS ANGELES,90026-2429,1400 Glendale 90026-2429,"(34.0798, -118.2597)"
0000155172-0004-0,STARBUCKS CORPORATION,STARBUCKS COFFEE #23286,13755 ROSCOE BLVD,PANORAMA CITY,91402-3852,13755 Roscoe 91402-3852,"(34.222, -118.4332)"
0000155172-0005-8,STARBUCKS CORPORATION,STARBUCKS COFFEE #58138,2449 E CENTURY BLVD,LOS ANGELES,90002-1852,2449 Century 90002-1852,"(33.9493, -118.2462)"
0000155172-0006-6,STARBUCKS CORPORATION,STARBUCKS COFFEE #55623,6180 LAUREL CANYON BLVD    #150,NORTH HOLLYWOOD,91606-3231,6180 Laurel Canyon 91606-3231,"(34.1821, -118.394)"
0000155172-0008-2,STARBUCKS CORPORATION,STARBUCKS COFFEE #50528,7040 SEPULVEDA BLVD,VAN NUYS,91405-2926,7040 Sepulveda 91405-2926,"(34.1988, -118.4658)"
0000155172-0009-1,STARBUCKS CORPORATION,STARBUCKS COFFEE #65550,800 N ALAMEDA STREET,LOS ANGELES,90012-2177,800 Alameda 90012-2177,"(34.0562, -118.236)"
0000155172-0010-4,STARBUCKS CORPORATION,STARBUCKS COFFEE #66068,754 S BROADWAY,LOS ANGELES,90014-2802,754 Broadway 90014-2802,"(34.0441, -118.2542)"
0000155172-0012-1,STARBUCKS CORPORATION,STARBUCKS COFFEE CO #65626,3785 WILSHIRE BLVD UNIT #107F,LOS ANGELES,90010-2889,3785 Wilshire 90010-2889,"(34.0628, -118.3087)"
0000155172-0013-9,STARBUCKS CORPORATION,STARBUCKS COFFEE #59335,21929 ROSCOE BLVD,CANOGA PARK,91304-3959,21929 Roscoe 91304-3959,"(34.2201, -118.6053)"
0000155172-0014-7,STARBUCKS CORPORATION,STARBUCKS COFFEE #52259,8940 GLENOAKS BLVD,SUN VALLEY,91352-,8940 GLENOAKS 91352,"(0.0, 0.0)"
0000155172-0015-5,STARBUCKS CORPORATION,STARBUCKS COFFEE #67344,10612 NATIONAL BLVD,LOS ANGELES,90034-3518,10612 National 90034-3518,"(34.0306, -118.4158)"
0000155172-0016-3,STARBUCKS CORPORATION,STARBUCKS COFFEE #72294,1411 W SUNSET BLVD,LOS ANGELES,90026-3431,1411 Sunset 90026-3431,"(34.0746, -118.2518)"
0000155172-0017-1,STARBUCKS CORPORATION,STARBUCKS COFFEE #609,8600 W PICO BLVD,LOS ANGELES,90035-2302,8600 Pico 90035-2302,"(34.0535, -118.3788)"
0000174012-0001-1,STARBUCKS CORPORATION,STARBUCKS COFFEE 639,6600 TOPANGA CANYON BLVD #49F,CANOGA PARK,91303-4603,6600 TOPANGA CANYON 91303-4603,"(34.1898, -118.6058)"
0000174012-0002-9,STARBUCKS CORPORATION,STARBUCKS COFFEE #49536,3505 S SEPULVEDA BLVD,LOS ANGELES,90034-0034,3505 Sepulveda 90034-0034,"(34.0189, -118.4223)"
0000174102-0001-5,STARBUCKS CORPORATION,STARBUCKS COFFEE #624,7624 MELROSE AVENUE,LOS ANGELES,90046-7420,7624 MELROSE 90046-7420,"(34.0836, -118.3558)"
0000174102-0002-3,STARBUCKS CORPORATION,STARBUCKS COFFEE #14629,8000 W SUNSET BLVD UNIT #B-110,LOS ANGELES,90046-2442,8000 SUNSET 90046-2442,"(34.098, -118.3644)"
0000194222-0001-3,STARBUCKS CORPORATION,STARBUCKS COFFEE #9234,555 W 5TH STREET,LOS ANGELES,90013-1010,555 5TH 90013-1010,"(34.0498, -118.2533)"
0000225200-0001-5,STARBUCKS CORPORATION,STARBUCKS COFFEE #659,11700 BARRINGTON COURT,LOS ANGELES,90049-2930,11700 BARRINGTON 90049-2930,"(34.0646, -118.4694)"
0000239843-0001-8,STARBUCKS CORPORATION,STARBUCKS COFFEE #9232,1875 CENTURY PARKS  E,LOS ANGELES,90067-2501,1875 CENTURY 90067-2501,"(34.0609, -118.4141)"
0000259392-0001-3,STARBUCKS CORPORATION,STARBUCKS COFFEE #5815,15301 VENTURA BLVD,SHERMAN OAKS,91403-3102,15301 VENTURA 91403-3102,"(34.1537, -118.4656)"
0000268539-0001-9,STARBUCKS CORPORATION,STARBUCKS COFFEE 5208,10235 RESEDA BLVD,NORTHRIDGE,91324-1460,10235 RESEDA 91324-1460,"(34.2563, -118.536)"
0000271368-0001-4,STARBUCKS CORPORATION,STARBUCK COFFEE #5794,1700 N VERMONT AVENUE,LOS ANGELES,90027-4306,1700 VERMONT 90027-4306,"(34.1017, -118.2917)"
0000275170-0002-2,GARCO ENTERPRISES INC,MCDONALD'S #7072,10611 W PICO BLVD,LOS ANGELES,90064-2213,10611 PICO 90064-2213,"(34.0433, -118.4222)"
0000289721-0001-5,HOMAK ENTERPRISES INC,MCDONALD'S #2203,15700 VENTURA BLVD,ENCINO,91436-2904,15700 VENTURA 91436-2904,"(34.1551, -118.4749)"
0000289721-0003-1,HOMAK ENTERPRISES INC,MCDONALD'S # 17114,23340 AVENUE SAN LUIS,WOODLAND HILLS,91364-1099,23340 AVENUE SAN LUIS 91364-1099,"(34.16, -118.6348)"
0000317127-0001-0,STARBUCKS CORPORATION,STARBUCKS COFFEE #5244,8817 S SEPULVEDA BLVD,LOS ANGELES,90045-4809,8817 SEPULVEDA 90045-4809,"(33.9571, -118.3962)"
0000317128-0001-4,STARBUCKS CORPORATION,STARBUCKS COFFEE #5213,12100 SANTA MONICA BLVD,LOS ANGELES,90025-2516,12100 SANTA MONICA 90025-2516,"(34.0405, -118.4633)"
0000317128-0002-2,STARBUCKS CORPORATION,STARBUCKS COFFEE #59109,5307 W CENTURY BLVD,LOS ANGELES,90045-5909,5307 Century 90045-5909,"(33.9456, -118.3733)"
0000330070-0001-0,STARBUCKS CORPORATION,STARBUCKS COFFEE 8617,2216 COLORADO BLVD,LOS ANGELES,90041-1143,2216 COLORADO 90041-1143,"(34.1392, -118.2147)"
0000364283-0001-1,STARBUCKS CORPORATION,STARBUCKS COFFEE #5277,6333 W 3RD STREET #112,LOS ANGELES,90036-3191,6333 3RD 90036-3191,"(34.0713, -118.36)"
0000364285-0001-1,STARBUCKS CORPORATION,STARBUCKS COFFEE #5275,100 WASHINGTON BLVD,MARINA DEL REY,90292-5126,100 WASHINGTON 90292-5126,"(33.9797, -118.4656)"
0000364285-0002-9,STARBUCKS CORPORATION,STARBUCKS COFFEE COMPANY # 51180,13641   SHERMAN WAY,VAN NUYS,91405-2845,13641 SHERMAN 91405-2845,"(34.2017, -118.4304)"
0000371553-0001-0,STARBUCKS CORPORATION,STARBUCKS COFFEE #5284,505 S FLOWER STREET SUITE #B13,LOS ANGELES,90071-2118,505 FLOWER 90071-2118,"(34.0515, -118.256)"
0000372284-0001-8,STARBUCKS CORPORATION,STARBUCKS COFFEE #5289,350 S GRAND AVENUE #B5,LOS ANGELES,90071-3461,350 GRAND 90071-3461,"(34.0523, -118.2517)"
0000373841-0002-4,STARBUCKS CORPORATION,STARBUCKS COFFEE #14211,8844 S SEPULVEDA BLVD,LOS ANGELES,90045-4833,8844 SEPULVEDA 90045-4833,"(33.9565, -118.3961)"
0000373841-0003-2,STARBUCKS CORPORATION,STARBUCKS COFFEE #58660,12980 FOOTHILL BLVD,SYLMAR,91342-4956,12980 Foothill 91342-4956,"(34.2957, -118.4181)"
0000373842-0001-1,STARBUCKS CORPORATION,STARBUCKS COFFEE #5373,7122 BEVERLY BLVD,LOS ANGELES,90036-2569,7122 BEVERLY 90036-2569,"(34.0761, -118.3447)"
0000386620-0001-6,STARBUCKS CORPORATION,STARBUCKS COFFEE #5291,444 S FLOWER STREET #170,LOS ANGELES,90071-2900,444 FLOWER 90071-2900,"(34.0522, -118.2554)"
0000400401-0001-8,STARBUCKS CORPORATION,STARBUCKS COFFEE #5833,15501 DEVONSHIRE STREET,MISSION HILLS,91345-2620,15501 DEVONSHIRE 91345-2620,"(34.2573, -118.4696)"
0000401688-0001-2,STARBUCKS COFFEE COMPANY #5394,STARBUCKS COFFEE CO,11705 NATIONAL BLVD,LOS ANGELES,90064-3644,11705 NATIONAL 90064-3644,"(34.0226, -118.4388)"
0000411884-0001-7,STARBUCKS CORPORATION,STARBUCKS COFFEE #5911,3680 WILSHIRE BLVD,LOS ANGELES,90010-2707,3680 WILSHIRE 90010-2707,"(34.0616, -118.3059)"
0000438009-0001-9,STARBUCKS,,515 N GRAND AVENUE #528,LOS ANGELES,90012-2149,515 GRAND 90012,"(34.0604, -118.244)"
0000445521-0001-5,STARBUCKS CORPORATION,STARBUCKS COFFEE #5785,6081 CENTER DRIVE #108,LOS ANGELES,90045-8830,6081 CENTER 90045-8830,"(33.9781, -118.393)"
0000448820-0001-7,STARBUCKS CORPORATION,STARBUCKS COFFEE #5341,20516 DEVONSHIRE STREET # B,CHATSWORTH,91311-3207,20516 DEVONSHIRE 91311-3207,"(34.2572, -118.5805)"
0000456797-0001-8,STARBUCKS CORPORATION,STARBUCKS COFFEE #5402,7055 W SUNSET BLVD,LOS ANGELES,90028-7509,7055 SUNSET 90028-7509,"(34.0979, -118.343)"
0000472042-0001-3,STARBUCKS CORPORATION,STARBUCKS COFFEE #5394,11705 NATIONAL BLVD,LOS ANGELES,90064-3644,11705 NATIONAL 90064-3644,"(34.0226, -118.4388)"
0000477370-0001-6,STARBUCKS CORPORATION,STARBUCKS COFFEE #5250,8985 VENICE BLVD #CB 2,LOS ANGELES,90034-3344,8985 VENICE 90034-3344,"(34.0282, -118.3904)"
0000486068-0001-3,CHIPOTLE MEXICAN GRILL INC,,5430 TOPANGA CANYON BLVD,WOODLAND HILLS,91367-6313,5430 TOPANGA CANYON 91367-6313,"(34.1693, -118.6057)"
0000486068-0003-0,CHIPOTLE MEXICAN GRILL INC,CHIPOTLE MEXICAN GRILL #1538,7101 MELROSE AVENUE,LOS ANGELES,90046-7617,7101 MELROSE 90046-7617,"(34.0834, -118.344)"
0000486068-0004-8,CHIPOTLE MEXICAN GRILL INC,CHIPOTLE MEXICAN GRILL #1569,5600 VAN NUYS BLVD,VAN NUYS,91401-4602,5600 VAN NUYS 91401-4602,"(34.1721, -118.4486)"
0000486068-0006-4,CHIPOTLE MEXICAN GRILL INC,CHIPOTLE MEXICAN GRILL #1996,3939 CRENSHAW BLVD SUITE #A,BALDWIN HILLS,90008-2541,3939 CRENSHAW 90008-2541,"(34.0138, -118.3351)"
0000486068-0007-2,CHIPOTLE MEXICAN GRILL INC,CHIPOTLE MEXICAN GRILL #1967,301 N LARCHMONT BLVD,LOS ANGELES,90004-3011,301 LARCHMONT 90004-3011,"(34.0762, -118.3236)"
0000486068-0008-1,CHIPOTLE MEXICAN GRILL INC,CHIPOTLE MEXICAN GRILL #1945,4550 W PICO BLVD UNIT #C1301,LOS ANGELES,90019-4232,4550 PICO 90019-4232,"(34.0487, -118.3357)"
0000486068-0010-2,CHIPOTLE MEXICAN GRILL INC,CHIPOTLE MEXICAN GRILL #2093,14006 RIVERSIDE DRIVE UNIT #249B,SHERMAN OAKS,91423-6390,14006 RIVERSIDE 91423-6390,"(34.1576, -118.4381)"
0000486068-0011-1,CHIPOTLE MEXICAN GRILL INC,CHIPOTLE MEXICAN GRILL #2095,10250 SANTA MONICA BLVD UNIT #FC-2,LOS ANGELES,90067-6623,10250 SANTA MONICA 90067-6623,"(34.0594, -118.4208)"
0000486068-0014-5,CHIPOTLE MEXICAN GRILL INC,CIPOTLE MEXICAN GRILL #1585,11690 SAN VICENTE BLVD,LOS ANGELES,90049-5104,11690 SAN VICENTE 90049-5104,"(34.0535, -118.4653)"
0000486068-0015-3,CHIPOTLE MEXICAN GRILL INC,CHIPOTLE MEXICAN GRILL #2374,5047 EAGLE ROCK BLVD,LOS ANGELES,90041-1923,5047 EAGLE ROCK 90041-1923,"(34.1381, -118.2144)"
0000486068-0016-1,CHIPOTLE MEXICAN GRILL INC,CHIPOTLE MEXICAN GRILL #2185,9175 DE SOTO AVENUE,CHATSWORTH,91311-4906,9175 DE SOTO 91311-4906,"(34.2376, -118.5885)"
0000486068-0018-8,CHIPOTLE MEXICAN GRILL INC,CHIPOTLE MEXICAN GRILL # 2361,7940 VAN NUYS BLVD UNIT #2A,PANORAMA CITY,91402-6084,7940 VAN NUYS 91402-6084,"(34.2153, -118.4487)"
0000486068-0021-8,CHIPOTLE MEXICAN GRILL INC,CHIPOTLE MEXICAN GRILL # 758,110 S FAIRFAX AVENUE SUITE #A12,LOS ANGELES,90036-2167,110 FAIRFAX 90036-2167,"(34.0741, -118.3614)"
0000486068-0022-6,CHIPOTLE MEXICAN GRILL INC,CHIPOTLE MEXICAN GRILL (#945),3748 S FIGUEROA STREET,LOS ANGELES,90007-4315,3748 FIGUEROA 90007-4315,"(34.0169, -118.2827)"
0000486068-0023-4,CHIPOTLE MEXICAN GRILL INC,CHIPOTLE MEXICAN GRILL # 1084,1077 BROXTON AVENUE,LOS ANGELES,90024-2803,1077 BROXTON 90024-2803,"(34.0618, -118.4466)"
0000486068-0025-1,CHIPOTLE MEXICAN GRILL INC,CHIPOTLE MEXICAN GRILL #1412,12175 VENTURA BLVD,STUDIO CITY,91604-2515,12175 VENTURA 91604-2515,"(34.1433, -118.3975)"
0000486068-0026-9,CHIPOTLE MEXICAN GRILL INC,CHIPOTLE MEXICAN GRILL #1310,6290 W SUNSET BLVD,LOS ANGELES,90028-8711,6290 SUNSET 90028-8711,"(34.0979, -118.3264)"
0000486068-0027-7,CHIPOTLE MEXICAN GRILL INC,CHIPOTLE MEXICAN GRILL #913,5550 WILSHIRE BLVD SUITE #101B,LOS ANGELES,90036-3809,5550 WILSHIRE 90036-3809,"(34.0622, -118.3494)"
0000486068-0028-5,CHIPOTLE MEXICAN GRILL INC,CHIPOTLE MEXICAN GRILL #1413,7660 W SUNSET BLVD,LOS ANGELES,90046-2724,7660 SUNSET 90046-2724,"(34.098, -118.3566)"
0000486068-0029-3,CHIPOTLE MEXICAN GRILL INC,CHIPOTLE MEXICAN GRILL #1500,601 W 7TH STREET,LOS ANGELES,90017-3801,601 7TH 90017-3801,"(34.0473, -118.2565)"
0000486068-0030-7,CHIPOTLE MEXICAN GRILL INC,CHIPOTLE MEXICAN GRILL,18700 VENTURA BLVD UNIT #130,TARZANA,91356-3303,18700 VENTURA 91356-3303,"(34.1706, -118.5407)"
0000486068-0031-5,CHIPOTLE MEXICAN GRILL INC,CHIPOTLE MEXICAN GRILL #1647,6443 CANOGA AVENUE,WOODLAND HILLS,91367-2408,6443 CANOGA 91367-2408,"(34.1874, -118.5975)"
0000486068-0032-3,CHIPOTLE MEXICAN GRILL INC,CHIPOTLE MEXICAN GRILL #1675,940 N WESTERN AVENUE UNIT #E,SAN PEDRO,90732-2403,940 WESTERN 90732-2403,"(33.7517, -118.3089)"
0000486068-0033-1,CHIPOTLE MEXICAN GRILL INC,CHIPOTLE MEXICAN GRILL #1789,6600 TOPANGA CANYON BLVD,CANOGA PARK,91303-2609,6600 TOPANGA CANYON 91303-2609,"(34.1898, -118.6058)"
0000486068-0035-8,CHIPOTLE MEXICAN GRILL INC,CHIPOTLE MEXICAN GRILL #1746,19332 NORDHOFF STREET,NORTHRIDGE,91324-2415,19332 NORDHOFF 91324-2415,"(34.2354, -118.5549)"
0000486068-0036-6,CHIPOTLE MEXICAN GRILL INC,CHIPOTLE MEXICAN GRILL #1681,16959 DEVONSHIRE STREET,GRANADA HILLS,91344-7407,16959 DEVONSHIRE 91344-7407,"(34.2575, -118.5014)"
0000486068-0037-4,CHIPOTLE MEXICAN GRILL INC,CHIPOTLE MEXICAN GRILL INC 1843,5240 LANKERSHIM BLVD,NORTH HOLLYWOOD,91601-3109,5240 LANKERSHIM 91601-3109,"(34.1657, -118.3751)"
0000486068-0038-2,CHIPOTLE MEXICAN GRILL INC,CHIPOTLE MEXICAN GRILL 1913,3183 WILSHIRE BLVD SUITE #195,LOS ANGELES,90010-1280,3183 WILSHIRE 90010-1280,"(34.0617, -118.2911)"
0000486068-0039-1,CHIPOTLE MEXICAN GRILL INC,CHIPOTLE MEXICAN GRILL #1942,14708   VENTURA BLVD   UNIT #B,SHERMAN OAKS,91403-3674,14708 VENTURA 91403-3674,"(34.1511, -118.4537)"
0000486068-0040-4,CHIPOTLE MEXICAN GRILL INC,CHIPOLTE MEXICAN GRILL #2461,8420   BEVERLY BLVD,LOS ANGELES,90048-1234,8420 BEVERLY 90048-1234,"(0.0, 0.0)"
0000486068-0041-2,CHIPOTLE MEXICAN GRILL INC,CHIPOTLE MEXICAN GRILL #2738,15207 W SUNSET BLVD,PACIFIC PALISADES,90272-3567,15207 SUNSET 90272-3567,"(34.0465, -118.5243)"
0000486068-0042-1,CHIPOTLE MEXICAN GRILL INC,CHIPOTLE MEXICAN GRILL #2944,11711   NATIONAL BLVD,LOS ANGELES,90064-3644,11711 NATIONAL 90064-3644,"(34.0226, -118.4392)"
0000486068-0043-9,CHIPOTLE MEXICAN GRILL INC,CHIPOTLE MEXICAN GRILL #2911,13075   VICTORY BLVD   SUITE #102,NORTH HOLLYWOOD,91606-2925,13075 VICTORY 91606-2925,"(34.1881, -118.417)"
0000486068-0045-5,CHIPOTLE MEXICAN GRILL INC,CHIPOTLE MEXICAN GRILL #2988,301 W OLYMPIC BLVD   SUITE #A,LOS ANGELES,90015-0000,301 OLYMPIC 90015-0000,"(0.0, 0.0)"
0000486068-0047-1,CHIPOTLE MEXICAN GRILL INC,CHIPOTLE MEXICAN GRILL #3119,1122 W 6TH STREET   SUITE #101,LOS ANGELES,90017-1893,1122 6TH 90017-1893,"(34.0543, -118.2629)"
0000486068-0048-0,CHIPOTLE MEXICAN GRILL INC,CHIPOTLE MEXICAN GRILL #3062,2134 W SUNSET BLVD   SUITE #F,LOS ANGELES,90026-1695,2134 SUNSET 90026-1695,"(34.0771, -118.2647)"
0000486068-0049-8,CHIPOTLE MEXICAN GRILL INC,CHIPOLTE MEXICAN GRILL #3094,6719   LA TIJERA BLVD   SUITE #A&B,LOS ANGELES,90045-,6719 LA TIJERA 90045-,"(0.0, 0.0)"
0000486068-0050-1,CHIPOTLE MEXICAN GRILL INC,CHIPOTLE MEXICAN GRILL #2711,10310   SEPULVEDA BLVD,MISSION HILLS,91345-2422,10310 SEPULVEDA 91345-2422,"(34.2579, -118.4663)"
0000486068-0051-0,CHIPOTLE MEXICAN GRILL INC,CHIPOTLE MEXICAN GRILL #3026,8420   BALBOA BLVD   SUITE #110,NORTHRIDGE,91325-,8420 BALBOA 91325-,"(0.0, 0.0)"
0000486068-0052-8,CHIPOTLE MEXICAN GRILL INC,CHIPOTLE MEXICAN GRILL #3534,9160   RESEDA BLVD,NORTHRIDGE,91324-3030,9160 RESEDA 91324-3030,"(34.2369, -118.5357)"
0000486068-0053-6,CHIPOTLE MEXICAN GRILL INC,CHIPOTLE MEXICAN GRILL #3755,20111 RINALDI STREET BUILDING #S6,PORTER RANCH,91326-4923,20111 Rinaldi 91326-4923,"(34.2755, -118.5725)"
0000486068-0054-4,CHIPOTLE MEXICAN GRILL INC,CHIPOTLE MEXICAN GRILL #3793,2200 TROJAN WAY,LOS ANGELES,90033-2704,2200 TROJAN 90033-2704,"(34.0495, -118.2114)"
0000486068-0055-2,CHIPOTLE MEXICAN GRILL INC,CHIPOTLE MEXICAN GRILL #4024,2595 S HOOVER STREET,LOS ANGELES,90007-4801,2595 HOOVER 90007-4801,"(34.0321, -118.2842)"
0000486068-0057-9,CHIPOTLE MEXICAN GRILL INC,,1550 S LA CIENEGA BLVD,LOS ANGELES,90035-3713,1550 La Cienega 90035-3713,"(34.0492, -118.3758)"
0000501929-0001-5,STARBUCKS CORPORATION,STARBUCKS 5318,9935 TOPANGA CANYON BLVD,CHATSWORTH,91311-3602,9935 TOPANGA CANYON 91311-3602,"(34.2505, -118.6061)"
0000531468-0001-3,STARBUCKS CORPORATION,STARBUCKS COFFEE #6459,9420 RESEDA BLVD #1,NORTHRIDGE,91324-6001,9420 RESEDA 91324-6001,"(34.2413, -118.536)"
0000532314-0001-6,STARBUCKS CORPORATION,STARBUCKS COFFEE #5996,13351 RIVERSIDE DRIVE #A,SHERMAN OAKS,91423-2542,13351 RIVERSIDE 91423-2542,"(34.1576, -118.4241)"
0000548717-0001-2,STARBUCKS CORPORATION,STARBUCKS COFFEE #5447,12824 VENTURA BLVD,N HOLLYWOOD,91604-2367,12824 VENTURA 91604-2367,"(34.1448, -118.4121)"
0000551373-0001-9,ONEMOR INC,MCDONALD'S,1625 WILSHIRE BLVD,LOS ANGELES,90017-1610,1625 WILSHIRE 90017-1610,"(34.0557, -118.2709)"
0000552209-0001-0,STARBUCKS CORPORATION,STARBUCKS COFFEE 6557,401 E 2ND STREET #E,LOS ANGELES,90012-4204,401 2ND 90012-4204,"(34.0477, -118.2393)"
0000554785-0001-6,STARBUCKS CORPORATION,STARBUCKS COFFEE # 6577,735 S FIGUEROA STREET #307,LOS ANGELES,90017-2563,735 FIGUEROA 90017-2563,"(34.0488, -118.2603)"
0000554785-0002-4,STARBUCKS CORPORATION,STARBUCKS #11233,523 W 6TH STREET #R533S,LOS ANGELES,90014-1217,523 6TH 90014-1217,"(34.0482, -118.2543)"
0000554785-0003-2,STARBUCKS CORPORATION,STARBUCKS COFFEE #10586,1090 WILSHIRE BLVD,LOS ANGELES,90017-2416,1090 WILSHIRE 90017-2416,"(34.0523, -118.2632)"
0000554785-0005-9,STARBUCKS CORPORATION,STARBUCKS COFFEE #13286,4430 YORK BLVD,LOS ANGELES,90041-3328,4430 YORK 90041-3328,"(34.1239, -118.2198)"
0000554785-0006-7,STARBUCKS CORPORATION,STARBUCKS COFFEE #14412,3344 S LA CIENEGA BLVD,LOS ANGELES,90016-3115,3344 LA CIENEGA 90016-3115,"(34.0271, -118.372)"
0000554785-0008-3,STARBUCKS CORPORATION,STARBUCKS COFFEE #5698,1250 S LA BREA AVENUE,LOS ANGELES,90019-1628,1250 LA BREA 90019-1628,"(34.0515, -118.3439)"
0000554785-0009-1,STARBUCKS CORPORATION,STARBUCKS COFFEE #5995,1850 W SLAUSON AVENUE,LOS ANGELES,90047-1126,1850 SLAUSON 90047-1126,"(33.9891, -118.3117)"
0000554785-0010-5,STARBUCKS CORPORATION,STARBUCKS COFFEE #6688,1601 WILSHIRE BLVD,LOS ANGELES,90017-1610,1601 WILSHIRE 90017-1610,"(34.0554, -118.2702)"
0000554785-0011-3,STARBUCKS CORPORATION,STARBUCKS COFFEE #9506,4700 W PICO BLVD,LOS ANGELES,90019-4267,4700 PICO 90019-4267,"(34.0485, -118.3382)"
0000554785-0012-1,STARBUCKS CORPORATION,STARBUCKS COFFEE #9505,4177 W WASHINGTON BLVD,LOS ANGELES,90018-1055,4177 WASHINGTON 90018-1055,"(34.0398, -118.3303)"
0000554785-0013-0,STARBUCKS CORPORATION,STARBUCKS COFFEE #9683,7902 VAN NUYS BLVD UNIT #B-2,VAN NUYS,91402-6084,7902 VAN NUYS 91402-6084,"(34.2146, -118.4487)"
0000554785-0014-8,STARBUCKS CORPORATION,STARBUCKS COFFEE #15062,800 N ALAMEDA STREET,LOS ANGELES,90012-2177,800 ALAMEDA 90012-2177,"(34.0561, -118.2374)"
0000554785-0016-4,STARBUCKS CORPORATION,STARBUCKS COFFEE COMPANY # 17331,600 W 9TH STREET,LOS ANGELES,90015-4301,600 9TH 90015-4301,"(34.0451, -118.2603)"
0000576494-0001-8,HOMAK ENTERPRISES INC,MCDONALD'S #27077 | MCDONALDS # 27077,18909 VENTURA BLVD,TARZANA,91356-3211,18909 VENTURA 91356-3211,"(34.1723, -118.5449)"
0000583456-0001-7,STARBUCKS CORPORATION,STARBUCKS COFFEE #6610,4800 LAUREL CANYON BLVD,VALLEY VILLAGE,91607-3717,4800 LAUREL CANYON 91607-3717,"(34.1576, -118.3964)"
0000584039-0001-8,AL-MATT INC,MCDONALD'S RESTAURANT,505 W FLORENCE AVENUE,LOS ANGELES,90044-6101,505 FLORENCE 90044-6101,"(33.9746, -118.2829)"
0000584427-0001-8,STARBUCKS CORPORATION,STARBUCKS COFFEE #5959,19313 VICTORY BLVD #1,TARZANA,91335-6302,19313 VICTORY 91335-6302,"(34.1865, -118.5539)"
0000587235-0001-8,STARBUCKS CORPORATION,STARBUCKS COFFEE 6608,300 E 9TH STREET,LOS ANGELES,90015-1802,300 9TH 90015-1802,"(34.04, -118.2532)"
0000603837-0001-1,STARBUCKS CORPORATION,STARBUCKS COFFEE 6431,28190 S WESTERN AVENUE,SAN PEDRO,90732-1248,28190 WESTERN 90732-1248,"(33.7637, -118.3113)"
0000646017-0001-6,SANCHEZ FAMILY CORPORATION,MCDONALD'S #6688,201 W WASHINGTON BLVD,LOS ANGELES,90015-3514,201 WASHINGTON 90015-3514,"(34.032, -118.2667)"
0000649039-0001-4,STARBUCKS CORPORATION,STARBUCKS COFFEE #5487,20054 VENTURA BLVD,WOODLAND HILLS,91364-2637,20054 VENTURA 91364-2637,"(34.1712, -118.5702)"
0000649093-0001-9,"MCDONALD'S RESTAURANTS OF CALIFORNIA, INC.",MCDONALD'S 5547 | MCDONALDS #5547,1452 W CARSON STREET,TORRANCE,90501-3920,1452 CARSON 90501-3920,"(33.8315, -118.3028)"
0000649093-0030-2,"MCDONALD'S RESTAURANTS OF CALIFORNIA, INC.",MCDONALD'S 27113,1845 S LA CIENEGA BLVD,LOS ANGELES,90035-4603,1845 LA CIENEGA 90035-4603,"(34.0433, -118.3765)"
0000666105-0001-4,STARBUCKS CORPORATION,STARBUCKS COFFEE # 5485,21504 VICTORY BLVD,WOODLAND HILLS,91367-2423,21504 VICTORY 91367-2423,"(34.188, -118.5997)"
0000666146-0001-3,STARBUCKS CORPORATION,STARBUCKS COFFEE #5461,6102 W SUNSET BLVD #6102,LOS ANGELES,90028-6424,6102 SUNSET 90028-6424,"(34.098, -118.3223)"
0000679696-0001-1,STARBUCKS CORPORATION,STARBUCKS COFFEE #5793,2919 LOS FELIZ BLVD #6,LOS ANGELES,90039-1544,2919 LOS FELIZ 90039-1544,"(34.1259, -118.2639)"
0000680765-0002-2,WALMART INC,WALMART STORE #5072,19503 NORMANDIE AVENUE,TORRANCE,90501-1361,19503 NORMANDIE 90501-1361,"(33.8542, -118.2992)"
0000680765-0005-7,WALMART INC,WAL-MART NEIGHBORHOOD MARKET #5605 | WALMART MARKET #5605,14530 NORDHOFF STREET,PANORAMA CITY,91402-1811,14530 NORDHOFF 91402-1811,"(34.2354, -118.4488)"
0000680765-0007-3,WALMART INC,WALMART STORE #2568,8333 VAN NUYS BLVD,PANORAMA CITY,91402-3607,8333 VAN NUYS 91402-3607,"(34.2226, -118.4488)"
0000680765-0009-0,WALMART INC,WALMART STORE #2526,19821 RINALDI STREET,PORTER RANCH,91326-4145,19821 RINALDI 91326-4145,"(34.275, -118.5663)"
0000680765-0010-3,WALMART INC,WALMART STORE #5152,6433 FALLBROOK AVENUE,WEST HILLS,91307-3543,6433 FALLBROOK 91307-3543,"(34.1871, -118.6233)"
0000708421-0001-0,STARBUCKS CORPORATION,STARBUCKS COFFEE #6782,16222 NORDHOFF STREET,NORTH HILLS,91343-3806,16222 NORDHOFF 91343-3806,"(34.2356, -118.4855)"
0000710339-0001-0,STARBUCKS CORPORATION,STARBUCKS COFFEE #6451,9824 NATIONAL BLVD SUITE #A,LOS ANGELES,90034-2713,9824 NATIONAL 90034-2713,"(34.031, -118.4014)"
0000739257-0001-8,STARBUCKS CORPORATION,STARBUCKS COFFEE #5488,5020 WILSHIRE BLVD,LOS ANGELES,90036-4315,5020 WILSHIRE 90036-4315,"(34.0621, -118.3393)"
0000826573-0001-9,STARBUCKS COFFEE COMPANY # 5549,STARBUCKS COFFEE #5549,2950 N BEVERLY GLEN CIRCLE,LOS ANGELES,90077-1724,2950 BEVERLY GLEN 90077-1724,"(34.1275, -118.4445)"
0000840830-0001-4,STARBUCKS CORPORATION,STARBUCKS COFFEE #5567,1898 WESTWOOD BLVD,LOS ANGELES,90025-4612,1898 WESTWOOD 90025-4612,"(34.0481, -118.4354)"
0000844737-0001-7,STARBUCKS CORPORATION,STARBUCK COFFEE #9228,2049 CENTURY PARKS  E UNIT #ROL16,LOS ANGELES,90067-3101,2049 CENTURY 90067-3101,"(34.0591, -118.4126)"
0000844743-0001-2,STARBUCKS CORPORATION,STARBUCKS COFFEE 9233,1999 AVENUE OF THE STARS SUITE #100A,LOS ANGELES,90067-4624,1999 AVENUE OF THE STARS 90067-4624,"(34.0586, -118.416)"
0000845625-0001-3,STARBUCKS CORPORATION,STARBUCKS COFFEE #563,6516 PLATT AVENUE,WEST HILLS,91307-3218,6516 PLATT 91307-3218,"(34.1884, -118.6427)"
0000845627-0001-2,STARBUCKS CORPORATION,STARBUCKS COFFEE #548,14622 VENTURA BLVD #116,SHERMAN OAKS,91403-3662,14622 VENTURA 91403-3662,"(34.1514, -118.4519)"
0000845628-0001-7,STARBUCKS CORPORATION,STARBUCKS COFFEE #508,11707 SAN VICENTE BLVD,LOS ANGELES,90049-6628,11707 SAN VICENTE 90049-6628,"(34.0536, -118.4661)"
0000845629-0001-1,STARBUCKS CORPORATION,STARBUCKS COFFEE CO #536,1161 WESTWOOD BLVD,LOS ANGELES,90024-3419,1161 WESTWOOD 90024-3419,"(34.0589, -118.444)"
0000845629-0002-0,STARBUCKS CORPORATION,STARBUCKS COFFEE #13222,800 W OLYMPIC BLVD UNIT #102,LOS ANGELES,90015-1361,800 OLYMPIC 90015-1361,"(34.045, -118.2639)"
0000855742-0001-1,STARBUCKS CORPORATION,STARBUCKS COFFEE #9230,217 N HILL STREET,LOS ANGELES,90012-2705,217 HILL 90012-2705,"(34.0556, -118.2454)"
0000859652-0001-6,STARBUCKS CORPORATION,STARBUCKS COFFEE #5577,6066 W OLYMPIC BLVD,LOS ANGELES,90036-4402,6066 OLYMPIC 90036-4402,"(34.0581, -118.3634)"
0000860517-0001-7,STARBUCKS CORPORATION,STARBUCKS COFFEE CO #507,206 N LARCHMONT BLVD,LOS ANGELES,90004-3707,206 LARCHMONT 90004-3707,"(34.0747, -118.3236)"
0000861981-0001-5,STARBUCKS CORP,STARBUCKS COFFEE #5379,5545 W SUNSET BLVD #106,LOS ANGELES,90028-8521,5545 SUNSET 90028-8521,"(34.098, -118.311)"
0000864275-0001-4,STARBUCKS CORPORATION,STARBUCKS COFFEE #5552,15030 VENTURA BLVD #1 A,SHERMAN OAKS,91403-5470,15030 VENTURA 91403-5470,"(34.1528, -118.4604)"
0000864309-0001-5,STARBUCKS CORPORATION,STARBUCKS COFFEE #5565,2215 WESTWOOD BLVD,LOS ANGELES,90064-2098,2215 WESTWOOD 90064-2098,"(34.0435, -118.4314)"
0000910728-0001-5,STARBUCKS CORPORATION,STARBUCKS COFFEE #5627,19500 PLUMMER STREET #F4,NORTHRIDGE,91324-2147,19500 PLUMMER 91324-2147,"(34.2427, -118.5579)"
0000947624-0001-9,STARBUCKS CORPORATION,STARBUCKS COFFEE #5643,17901 CHATSWORTH STREET,GRANADA HILLS,91344-5606,17901 CHATSWORTH 91344-5606,"(34.2649, -118.5234)"
0000947625-0001-3,STARBUCKS CORPORATION,STARBUCKS COFFEE #5683,2556 GLENDALE BLVD,LOS ANGELES,90039-3220,2556 GLENDALE 90039-3220,"(34.104, -118.2591)"
0000951177-0002-1,TAMBIEN INC,MCDONALD'S,850 W ROSECRANS AVENUE,GARDENA,90247-2757,850 Rosecrans 90247-2757,"(33.9015, -118.2911)"
0000957670-0001-5,P R PERNECKY MANAGEMENT CORP,MCDONALD'S,4947 HUNTINGTON DRIVE N,LOS ANGELES,90032-1643,4947 HUNTINGTON 90032-1643,"(34.0875, -118.1752)"
0000957670-0002-3,P R PERNECKY MANAGEMENT CORP,MCDONALD'S,5008 N FIGUEROA STREET,LOS ANGELES,90042-3920,5008 FIGUEROA 90042-3920,"(34.105, -118.202)"
0000966487-0001-3,STARBUCKS CORPORATION,STARBUCKS COFFEE #5694,2470 S WESTERN AVENUE,SAN PEDRO,90732-4359,2470 WESTERN 90732-4359,"(33.7231, -118.3126)"
0000969609-0001-1,STARBUCKS CORPORATION,STARBUCKS COFFEE #5651,1400 W 190TH STREET #F,TORRANCE,90501-1136,1400 190TH 90501-1136,"(33.8583, -118.3021)"
0000991179-0001-7,STARBUCKS CORPORATION,STARBUCK'S COFFEE #5775,6743 HOLLYWOOD BLVD,HOLLYWOOD,90028-4604,6743 HOLLYWOOD 90028-4604,"(34.1015, -118.3374)"
0000995107-0001-1,STARBUCKS CORPORATION,STARBUCKS COFFEE #5734,10965 VENTURA BLVD,STUDIO CITY,91604-3341,10965 VENTURA 91604-3341,"(34.1401, -118.3694)"
0000999236-0001-5,STARBUCKS CORP,STARBUCKS COFFEE #659,11700 SAN VICENTE BLVD,LOS ANGELES,90049-5006,11700 SAN VICENTE 90049-5006,"(34.0535, -118.4655)"
0002041707-0001-0,ATKA ENTERPRISES INC,MCDONALD'S RESTAURANT,19503 NORMANDIE AVENUE,TORRANCE,90501-1361,19503 NORMANDIE 90501-1361,"(33.8542, -118.2992)"
0002091597-0001-8,SOUTH BAY CORP,MCDONALD'S RESTAURANT,6345 WILSHIRE BLVD,LOS ANGELES,90048-5001,6345 WILSHIRE 90048-5001,"(34.0635, -118.3666)"
0002111694-0001-7,STARBUCKS CORPORATION,STARBUCKS COFFEE #6473,7258 CANOGA AVENUE,CANOGA PARK,91303-1627,7258 CANOGA 91303-1627,"(34.202, -118.5977)"
0002111694-0002-5,STARBUCKS CORPORATION,STARBUCKS COFFEE #11895,11850 BALBOA BLVD UNIT #B102,GRANADA HILLS,91344-2753,11850 BALBOA 91344-2753,"(34.2854, -118.502)"
0002267130-0003-3,STARBUCKS CORPORATION,STARBUCKS COFFEE #11779,19439 VENTURA BLVD,TARZANA,91356-3030,19439 VENTURA 91356-3030,"(34.1727, -118.5564)"
0002298756-0001-7,HOMAK ENTERPRISES INC,MCDONALD'S RESTAURANT # 1711 | MCDONALDS # 1711,17641 VENTURA BLVD,ENCINO,91316-3842,17641 VENTURA 91316-3842,"(34.1622, -118.5177)"
0002363980-0001-7,STARBUCKS CORPORATION,STARBUCKS COFFEE # 11603,4900 TOPANGA CANYON BLVD,WOODLAND HILLS,91364-3112,4900 TOPANGA CANYON 91364-3112,"(34.1569, -118.6058)"
0002363980-0005-0,STARBUCKS CORPORATION,STARBUCKS COFFEE #49978,20056   SHERMAN WAY,WINNETKA,91306-3607,20056 SHERMAN 91306-3607,"(34.2007, -118.5705)"
0002363980-0006-8,STARBUCKS CORPORATION,STARBUCKS COFFEE COMPANY 27711,1789 W JEFFERSON BLVD,LOS ANGELES,90018-3913,1789 JEFFERSON 90018-3913,"(34.0258, -118.3085)"
0002363980-0007-6,STARBUCKS CORPORATION,STARBUCKS COFFEE #49792,1102 W 6TH STREET,LOS ANGELES,90017-1829,1102 6TH 90017-1829,"(34.0538, -118.2628)"
0002363980-0008-4,STARBUCKS CORPORATION,STARBUCKS COFFEE COMPANY # 25043,3201 S HOOVER STREET   #1820,LOS ANGELES,90089-3545,3201 HOOVER 90089-3545,"(34.0204, -118.2861)"
0002363980-0009-2,STARBUCKS CORPORATION,STARBUCKS COFFEE COMPANY # 27874,2138   HILLHURST AVENUE,LOS ANGELES,90027-2012,2138 HILLHURST 90027-2012,"(34.1111, -118.2871)"
0002363980-0010-6,STARBUCKS CORPORATION,STARBUCKS COFFEE COMPANY # 27293,8274   SUNLAND BLVD,SUN VALLEY,91352-3301,8274 SUNLAND 91352-3301,"(34.221, -118.3671)"
0002363980-0011-4,STARBUCKS CORPORATION,STARBUCKS COFFEE #51056,1106   CORNWELL STREET,LOS ANGELES,90033-1415,1106 CORNWELL 90033-1415,"(34.0557, -118.2046)"
0002363980-0012-2,STARBUCKS CORPORATION,STARBUCKS COFFEE #53657,2110 W SUNSET BLVD,LOS ANGELES,90026-3125,2110 SUNSET 90026-3125,"(34.0772, -118.2641)"
0002363980-0013-1,STARBUCKS CORPORATION,STARBUCKS COFFEE #55102,801 S OLIVE STREET,LOS ANGELES,90014-3010,801 OLIVE 90014-3010,"(34.0451, -118.2574)"
0002363980-0014-9,STARBUCKS CORPORATION,STARBUCKS COFFEE # 50325,10601   WASHINGTON BLVD,CULVER CITY,90232-3339,10601 WASHINGTON 90232-3339,"(34.0174, -118.4052)"
0002363980-0015-7,STARBUCKS CORPORATION,STARBUCKS COFFEE #55650,4700 W SUNSET BLVD,LOS ANGELES,90027-6082,4700 SUNSET 90027-6082,"(34.0978, -118.2921)"
0002363980-0016-5,STARBUCKS CORPORATION,STARBUCKS COFFEE #24163,5929 W SUNSET BLVD,LOS ANGELES,90028-7262,5929 SUNSET 90028-7262,"(34.0984, -118.319)"
0002363980-0017-3,STARBUCKS CORPORATION,STARBUCKS COFFEE COMPANY # 50498,230 S ALVARADO STREET,LOS ANGELES,90057-2306,230 ALVARADO 90057-2306,"(34.0631, -118.2722)"
0002363980-0018-1,STARBUCKS CORPORATION,STARBUCKS COFFEE COMPANY # 29497,19301   NORDHOFF STREET,NORTHRIDGE,91324-2416,19301 NORDHOFF 91324-2416,"(34.2358, -118.554)"
0002363980-0019-0,STARBUCKS CORPORATION,STARBUCKS COFFEE COMPANY # 50834,18025   VENTURA BLVD,ENCINO,91316-3517,18025 VENTURA 91316-3517,"(34.1651, -118.5253)"
0002363980-0020-3,STARBUCKS CORPORATION,STARBUCKS COFFEE COMPANY # 52258,6260   SANTA MONICA BLVD,LOS ANGELES,90038-1704,6260 SANTA MONICA 90038-1704,"(34.0906, -118.3258)"
0002363980-0021-1,STARBUCKS CORPORATION,STARBUCKS COFFEE #49449,9857   MASON AVENUE,CHATSWORTH,91311-5212,9857 MASON 91311-5212,"(34.2492, -118.5799)"
0002363980-0022-0,STARBUCKS CORPORATION,STARBUCKS COFFEE #57520,3061   SAWTELLE BLVD,LOS ANGELES,90066-1407,3061 SAWTELLE 90066-1407,"(34.0257, -118.4314)"
0002363980-0023-8,STARBUCKS CORPORATION,STARBUCKS COFFEE #56002,14640   ROSCOE BLVD,PANORAMA CITY,91402-4105,14640 ROSCOE 91402-4105,"(34.221, -118.4511)"
0002363980-0024-6,STARBUCKS CORPORATION,STARBUCKS COFFEE #58623,181 S VERMONT AVENUE,LOS ANGELES,90004-5904,181 VERMONT 90004-5904,"(34.0706, -118.2921)"
0002363980-0025-4,STARBUCKS CORPORATION,STARBUCKS COFFEE # 11603,1500   WESTWOOD BLVD,LOS ANGELES,90024-5602,1500 WESTWOOD 90024-5602,"(34.054, -118.4402)"
0002363980-0026-2,STARBUCKS CORPORATION,STARBUCKS COFFEE #28816,1630   SEPULVEDA BLVD,HARBOR CITY,90710-1136,1630 SEPULVEDA 90710-1136,"(33.8164, -118.3081)"
0002363980-0027-1,STARBUCKS CORPORATION,STARBUCKS COFFEE #59684,8500   BEVERLY BLVD   #701,LOS ANGELES,90048-6293,8500 BEVERLY 90048-6293,"(34.076, -118.3766)"
0002363980-0028-9,STARBUCKS CORPORATION,STARBUCKS COFFEE #48677,9900   BALBOA BLVD,NORTHRIDGE,91325-5403,9900 BALBOA 91325-5403,"(34.2506, -118.502)"
0002373073-0001-0,MASSIE PARTNERS INC,MCDONALD'S # 8014,6776 HOLLYWOOD BLVD SPACE #8014,LOS ANGELES,90028-4622,6776 HOLLYWOOD 90028-4622,"(34.1015, -118.3382)"
0002395363-0020-4,CHIPOTLE MEXICAN GRILL INC,CHIPOTLE MEXICAN GRILL #3982,255 S GRAND AVENUE,LOS ANGELES,90012-3015,255 GRAND 90012-3015,"(34.0537, -118.2515)"
0002518494-0001-3,2MANGAS INCORPORATED,CRENSHAW MCDONALD'S #10070,4292 CRENSHAW BLVD,LOS ANGELES,90008-2535,4292 CRENSHAW 90008-2535,"(34.0055, -118.3339)"
0002518494-0002-1,2MANGAS INCORPORATED,MCDONALD'S,2457 LINCOLN BLVD,VENICE,90291-5040,2457 Lincoln 90291-5040,"(33.9929, -118.4511)"
0002616152-0001-6,BLADE ENTERPRISE III INC,MCDONALD'S #17115,4680 LINCOLN BLVD,MARINA DEL REY,90292-6306,4680 LINCOLN 90292-6306,"(33.9812, -118.4397)"
0002688579-0001-7,STANLEY MCDONALD,MCDONALD'S PLUMBING,1826 W 45TH STREET,LOS ANGELES,90062-1953,1826 45TH 90062-1953,"(34.0027, -118.3119)"
0002772229-0001-0,GBAL INC,MCDONALD'S 10805,501 W IMPERIAL HIGHWAY,LOS ANGELES,90044-4222,501 IMPERIAL 90044-4222,"(33.931, -118.2826)"
0002928142-0002-8,TECKNOLOGY MMBC,MCDONALD'S 36268,17700   ROSCOE BLVD,NORTHRIDGE,91325-3910,17700 ROSCOE 91325-3910,"(34.2205, -118.5192)"
0003018153-0001-7,HAFA MANAGEMENT CORP,MCDONALD'S # 12970,12616   SHERMAN WAY,NORTH HOLLYWOOD,91605-5239,12616 SHERMAN 91605-5239,"(34.2009, -118.4081)"
0003018153-0002-5,HAFA MANAGEMENT CORP,MCDONALD'S # 27753,7161   SEPULVEDA BLVD,VAN NUYS,91405-2930,7161 SEPULVEDA 91405-2930,"(34.2008, -118.4666)"
0003018153-0003-3,HAFA MANAGEMENT CORP,MCDONALD'S # 28364,8656   SEPULVEDA BLVD,NORTH HILLS,91343-5827,8656 SEPULVEDA 91343-5827,"(34.228, -118.467)"
0003018153-0004-1,HAFA MANAGEMENT CORP,MCDONALD'S # 605,7045   VAN NUYS BLVD,VAN NUYS,91405-3003,7045 VAN NUYS 91405-3003,"(34.1989, -118.4492)"
0003018153-0005-0,HAFA MANAGEMENT CORP,MCDONALD'S # 23822,13700   SHERMAN WAY,VAN NUYS,91405-2626,13700 SHERMAN 91405-2626,"(34.2008, -118.4316)"
0003018153-0006-8,HAFA MANAGEMENT CORP,MCDONALD'S,6750   DE SOTO AVENUE,CANOGA PARK,91303-3036,6750 DE SOTO 91303-3036,"(34.1934, -118.588)"
0003018153-0007-6,HAFA MANAGEMENT CORP,MCDONALD'S,9185   DE SOTO AVENUE,CHATSWORTH,91311-4906,9185 DE SOTO 91311-4906,"(34.2379, -118.589)"
0003025561-0001-9,NICKER - 18TH INC,MCDONALD'S,1800 S WESTERN AVENUE,LOS ANGELES,90006-5806,1800 WESTERN 90006-5806,"(34.0416, -118.3085)"
0003025571-0001-2,NICKER - MLK,MCDONALD'S,4348 W SUNSET BLVD,LOS ANGELES,90029-2112,4348 SUNSET 90029-2112,"(34.0953, -118.2842)"
0003025585-0001-4,NICKER WESTERN INC,MCDONALD'S,1900 W SLAUSON AVENUE,LOS ANGELES,90047-1129,1900 SLAUSON 90047-1129,"(33.9888, -118.3119)"
0003120968-0001-2,STARBUCKS,,6801   HOLLYWOOD BLVD   #257,LOS ANGELES,90028-6163,6801 HOLLYWOOD 90028-6163,"(34.1026, -118.3395)"
0003211865-0001-7,STARBUCKS CORPORATION,STARBUCKS COFFEE #57613,11401   SANTA MONICA BLVD,LOS ANGELES,90025-3009,11401 SANTA MONICA 90025,"(34.0458, -118.4512)"
0003211865-0002-5,STARBUCKS CORPORATION,STARBUCKS COFFEE #56009,5201 E BEVERLY BLVD,LOS ANGELES,90022-2001,5201 Beverly 90022-2001,"(34.0322, -118.1532)"
0003225118-0001-1,NZMK INC.,MCDONALD'S,1210 S SOTO STREET,LOS ANGELES,90023-2616,1210 SOTO 90023,"(34.0276, -118.2192)"
0003251647-0001-8,DRS HOSPITALITY LLC,MCDONALD'S RESTAURANT # 11377,2224 N FIGUEROA STREET,LOS ANGELES,90065-1024,2224 FIGUEROA 90065,"(34.0831, -118.2227)"
0003251647-0002-6,DRS HOSPITALITY LLC,MCDONALD'S RESTAURANT # 1136,3458   WHITTIER BLVD,LOS ANGELES,90023-1708,3458 WHITTIER 90023,"(34.0267, -118.1993)"
0003251647-0003-4,DRS HOSPITALITY LLC,MCDONALD'S RESTAURANT # 10129,245 N SOTO STREET,LOS ANGELES,90033-2914,245 SOTO 90033,"(34.0463, -118.2086)"
0003251647-0004-2,DRS HOSPITALITY LLC,MCDONALD'S RESTAURANT # 1304,1716   MARENGO STREET,LOS ANGELES,90033-1315,1716 MARENGO 90033,"(34.0585, -118.2123)"
0003278664-0001-5,BLADE ENTERPRISES VIII,MCDONALD'S #658,1728 W LOMITA BLVD,LOMITA,90717-1904,1728 LOMITA 90717,"(33.7975, 33.7975)"
0003281601-0001-5,BLADE ENTERPRISES VIII,MCDONALD'S #11415,1712 PACIFIC COAST HIGHWAY,LOMITA,90717-2720,1712 Pacific Coast 90717-2720,"(33.7891, -118.3081)"
0003338227-0001-1,WALMART INC,WALMART CREATIVE HUB #10988,5404 JANDY PLACE,LOS ANGELES,90066-7006,5404 JANDY 90066,"(33.9821, 33.9821)"
0003343586-0001-3,"HOMAK JS 2 ENTERPRISES, INC",MCDONALD'S RESTAURANT #3872,21901 ERWIN STREET,WOODLAND HILLS,91367-3612,21901 Erwin 91367-3612,"(34.1833, -118.6043)"
0003356127-0001-1,NICKER HARBOR INC,MCDONALD'S,4000 S FIGUEROA STREET,LOS ANGELES,90037-2002,4000 Figueroa 90037-2002,"(34.0107, -118.2824)"
0003356129-0001-1,NICKER VERMONT INC,MCDONALD'S,1071 W MARTIN LUTHER KING JR BLVD,LOS ANGELES,90037-1816,1071 Martin Luther King Jr 90037-1816,"(34.0112, -118.2939)"
0003389634-0001-3,MYSON ENTERPRISES INC,MCDONALD'S #11157,3105 N BROADWAY,LOS ANGELES,90031-2703,3105 BROADWAY 90031,"(34.0741, 34.0741)"
0003398366-0001-8,WALMART INC.,WALMART CREATIVE HUB # 10989,5404 JANDY PLACE,LOS ANGELES,90066-7006,5404 JANDY 90066-7006,"(33.9821, -118.4163)"
